STARLINK-31608          
1 59397U 24062X   26068.72815951  .00000093  00000+0  15271-4 0  9998
2 59397  53.1590 255.7398 0001068  86.7838 273.3285 15.30194694109622
JINJUSAT-1B             
1 63210U 25052A   26068.66363707  .00019955  00000+0  68430-3 0  9998
2 63210  97.4113 325.4613 0005550  82.1930 277.9941 15.30194857 54866
